#dP2023  3  2  0  0  0.00000000      96 __u+U ITR14 FIT  IAC
## 2251 345600.00000000   900.00000000 60005 0.0000000000000
+  117   C06C07C08C09C10C11C12C13C14C16C19C20C21C22C23C24C25
+        C26C27C28C29C30C32C33C34C35C36C37C38C39C40C41C42C43
+        C44C45C46E02E03E04E05E07E08E09E10E11E12E14E15E18E19
+        E21E24E25E26E27E30E31E33E34E36G01G02G03G04G05G06G07
+        G08G09G10G11G12G13G14G15G16G17G18G19G20G21G22G23G24
+        G25G26G27G28G29G30G32J02J03J04R01R02R03R04R05R07R08
+        R09R11R12R13R14R15R16R17R18R19R20R21R22R24R25  0  0
++        11 11 12 11 11 10 10 11 11 11 10 10  9  9  9  9  9
++         9  9  9  9  9 10  9  9 12 10 10 11 10 10 10  9  9
++         9  9 10  5  4  5  4  4  4  4  5  5  5  5  4  4  5
++         4  4  4  4  5  5  5  5  4  5  4  4  4  4  4  4  4
++         4  4  4  4  4  4  4  4  4  4  4  4  4  4  4  4  5
++         3  4  4  4  4  4  4  9  8  9  8  6  6  6  6  6  6
++         6  6  6  8  6  6  6  6  6  7  7  6  6  6  8  0  0
%c M  cc GPS ccc cccc cccc cccc cccc ccccc ccccc ccccc ccccc
%c cc cc ccc ccc cccc cccc cccc cccc ccccc ccccc ccccc ccccc
%f  0.0000000  0.000000000  0.00000000000  0.000000000000000
%f  0.0000000  0.000000000  0.00000000000  0.000000000000000
%i    0    0    0    0      0      0      0      0         0
%i    0    0    0    0      0      0      0      0         0
/* INFORMATION & ANALYSIS CENTER (IAC)            RAPID DATA
/* S/V CLOCKS ARE ALIGNED TO GNSS TIME                      
/* G:C1WC2W R:C1PC2P E:C1XC5X C:C2IC6I J:C1CC2S             
/* PCV:IGS20_2247 OL/AL:FES2004  NONE     YN ORB:CoN CLK:CoN
*  2023 03 02 11 45  0.00000000
PC06  -8399.464740  23163.402124 -34201.795899   -193.826497
PC07 -17253.269609  36362.237907  12307.651087     38.891649
PC08  -1306.337742  37700.461628  19021.959673    522.563853
PC09   1481.394294  25590.815352 -32988.130144    884.227551
PC10 -10467.181784  36405.899705  18272.701955     -0.007519
PC11  15088.362082  14635.283064  18429.758975    683.213749
PC12  -5331.449393  14699.108228  23152.061648    482.388465
PC13   2616.727406  39925.870312  13868.951067    219.999600
PC14   5600.847318  16984.643595 -21385.176219    540.773600
PC16 -10446.806157  21799.085040 -34342.398050    149.321576
PC19 -13121.935798  -8715.063838  23064.596854   -894.929852
PC20   1448.180799 -21751.700442  17456.654966    699.582334
PC21 -16326.608492  22601.299353   -807.783901   -909.270468
PC22 -20856.113471   9972.334170  15616.868340   -606.544726
PC23  17517.881449   1264.521023  21682.615937   -882.927874
PC24   5646.431584  26418.690917  -7069.889963   -345.727430
PC25  17402.479575  18622.680270  11374.411790     80.725119
PC26  -6953.597325  18716.349966 -19527.723825    -86.096046
PC27  14614.082260 -12296.813409 -20359.100418    104.486351
PC28  26701.601862  -1930.632468  -7869.649090     76.346758
PC29 -23803.520106  -9802.655984 -10787.789840     88.029432
PC30  -5835.759323 -16024.728300 -22099.874571      1.004314
PC32  16165.871706 -22741.904907    791.815762   -609.178829
PC33  13142.083023   8698.743726 -23020.455855   -871.259127
PC34   7199.918041  15960.430916  21712.445076    117.549987
PC35 -26999.568389   2160.689489   6803.374115    671.641446
PC36 -16736.683409 -19535.572496 -10790.056951   -591.143673
PC37   8387.879617 -17352.899272  20177.483466   -810.208938
PC38  -7503.591974  33142.610426  25085.358406     62.253827
PC39 -17062.068441  19676.584261 -33164.773468     -2.010884
PC40 -24432.691424  32311.749986  11241.266421    -16.462494
PC41  20762.227554  -9518.043719 -15980.583718   -673.932840
PC42  -2529.745439  22305.538456 -16514.844025   -808.760722
PC43  23248.426315  10331.128917  11428.952429      9.747761
PC44 -14424.307897  12839.864589  20146.043136     31.542856
PC45 -17289.218413   -814.318302 -21892.402505    -67.010165
PC46  -6906.030812 -26454.040819   5472.632975    -37.013494
PE02  12470.525410  16063.219191  21506.497803     23.898426
PE03  20671.473361   6902.894643 -20034.484374   -655.133155
PE04 -28203.106671   7543.392355   4900.565086    -69.518737
PE05    768.197734  17649.324378 -23745.536628    -90.374813
PE07  19393.798261 -17890.711803  13429.871841    -26.812662
PE08  28180.931426  -7516.428003  -5075.601315    -44.497887
PE09 -19536.541448  17794.192926 -13321.059782   -854.434978
PE10 -17402.790084   5455.788482  23311.679254   -516.125574
PE11  -8243.276791  13925.794942  24777.970172   1089.192683
PE12 -23078.817951  -3050.531616  18298.414654   -441.643524
PE14   -310.018833 -20493.985640 -23779.720867    156.834817
PE15  23173.356925   3338.333336 -18094.486327     -4.652420
PE18  14178.341976  11845.843264  17892.423735   -330.778038
PE19 -18450.618987  -8714.872372  21453.581742  -3108.263710
PE21  -1393.707288 -28435.175314  -8096.998207   -515.148802
PE24 -11759.916745  24638.696905 -11492.918478  -1142.693899
PE25   1158.366239  28541.063270   7780.215707   -600.475015
PE26 -10952.717024 -22131.921423 -16318.678485     33.542769
PE27  11207.415065 -25177.598001  10776.114416   -524.839592
PE30  17164.954909  -6318.947711  23252.063662  -1284.287750
PE31 -17076.264804   7139.884685 -23102.091494   -517.436950
PE33 -23598.265114 -17870.167444    697.828482   -450.536140
PE34  23678.832801  17742.008461   -851.047972    -32.778962
PE36  10287.121269  21925.140191  17014.084828    -20.124156
PG01 -21755.280821 -13792.187282   6873.774041    206.954129
PG02  22786.327431   9406.957821  -8939.025273   -617.281922
PG03 -13447.937135  -7129.651594  21656.603249   -356.253273
PG04 -23518.576853  -1974.619191  12302.558615    -16.223433
PG05   6633.766930  21444.568700 -14271.917039   -117.902532
PG06  -3693.592817  15517.713688  21284.539011    577.758005
PG07 -20182.663305  -1730.965618 -16988.337461    231.173466
PG08 -14874.433076  -9514.204518 -20017.233197   -110.988882
PG09 -25432.526975   7371.847036   2298.020360   -208.516284
PG10  11170.796614 -21728.175339  -9849.756315    -26.880556
PG11   8803.271679  21376.826989  13117.123304   -118.528901
PG12  12308.284064  10009.056113  21036.223721   -346.593938
PG13   6795.046029  13913.439398 -21775.257258    484.222122
PG14 -13448.951792  19454.292968 -11948.771999    -14.513620
PG15  16256.981279   8359.938038 -19805.301462     17.971259
PG16  -2423.477159 -23026.894389 -12883.435130   -517.614175
PG17 -20266.641638  13342.600606  11351.216577    703.146987
PG18  17608.564737  -2118.873061 -19814.189835   -162.347210
PG19 -11536.329241  15143.936528  18171.308930    284.601377
PG20   1679.327622  26365.889296  -3636.215757    447.520605
PG21 -21239.286645 -16625.050356   -933.412963    154.217685
PG22   7497.012930 -16194.653215  20057.167884    437.326358
PG23  14873.734044 -11776.333993 -18522.630424      8.519952
PG24  22232.884960  14777.535357   1878.439113    -95.189866
PG25  15555.978356  -1425.616470  21137.743665    424.384630
PG26   4187.027276 -26021.372500    822.935407    241.825414
PG27  -3057.290500 -14905.185288 -21986.118627     90.277039
PG28   5336.496675 -14872.576446  21317.931410     31.007995
PG29  25896.424144  -2775.516692   5366.457353   -588.854012
PG30 -11652.596094  10615.202150 -21287.869730   -528.482544
PG32  17203.213684 -15516.135053  12976.492303   -411.630424
PJ02 -23207.922995  30404.818599 -13140.046323     -1.064985
PJ03 -28337.961096  22208.203602  27012.179985      0.591676
PJ04 -31657.317478  27956.494765   8590.323839     94.190659
PR01   7725.518817   7841.757628 -23004.849224     24.001417
PR02  18909.568034  -7346.892553 -15372.612226    -23.204858
PR03  18409.403825 -17581.996534   1083.748949     73.423783
PR04   7972.716418 -17656.398018  16619.420910    177.798611
PR05  -6908.523339  -8270.524198  23135.088614    108.593137
PR07 -18224.907668  17795.634386  -1745.070955     50.942382
PR08  -7765.721813  17715.086538 -16584.505944    -69.679258
PR09 -12138.042680  -3165.706858 -22208.594555    106.915554
PR11   2458.537685  24423.458042  -6907.920890    -11.895197
PR12  10449.430671  20017.523352  11902.343440     25.363354
PR13  12055.718608   5197.933095  21849.646883    -32.579165
PR14   6308.460088 -14955.973782  19686.823954     24.367823
PR15  -2764.409780 -24689.849184   5797.620536     90.725725
PR16 -10435.956662 -20197.495788 -11595.979564     11.888954
PR17  14443.505506  -5103.916739 -20395.987044    609.276937
PR18  -2631.310607 -11548.138072 -22583.302147     69.411311
PR19 -16895.293734 -12811.550622 -14182.078514   -223.773250
PR20 -24095.576168  -5934.400453   6022.344188    -88.606334
PR21 -12893.554081   5828.207667  21220.279059   -377.258544
PR22   2901.225154  12224.306041  22223.535488     73.167298
PR24  24196.998012   4709.685675  -6552.374411    150.651504
PR25 -14962.776024   4544.330062  20154.049900     56.562837
EOF
